{
    "links": {
        "self": "http://www.neowsapp.com/rest/v1/neo/3440134?api_key=iIulBulltgU6a56xZRHN4H3l9WmuAYTsLGpBGhQ2"
    },
    "id": "3440134",
    "neo_reference_id": "3440134",
    "name": "(2008 WW32)",
    "designation": "2008 WW32",
    "nasa_jpl_url": "http://ssd.jpl.nasa.gov/sbdb.cgi?sstr=3440134",
    "absolute_magnitude_h": 21.2,
    "estimated_diameter": {
        "kilometers": {
            "estimated_diameter_min": 0.1529519353,
            "estimated_diameter_max": 0.3420109247
        },
        "meters": {
            "estimated_diameter_min": 152.9519353442,
            "estimated_diameter_max": 342.0109247198
        },
        "miles": {
            "estimated_diameter_min": 0.095039897,
            "estimated_diameter_max": 0.2125156703
        },
        "feet": {
            "estimated_diameter_min": 501.8108275547,
            "estimated_diameter_max": 1122.0831222578
        }
    },
    "is_potentially_hazardous_asteroid": false,
    "close_approach_data": [
        {
            "close_approach_date": "2008-12-05",
            "close_approach_date_full": "2008-Dec-05 06:59",
            "epoch_date_close_approach": 1228460340000,
            "relative_velocity": {
                "kilometers_per_second": "11.1658162097",
                "kilometers_per_hour": "40196.9383550413",
                "miles_per_hour": "24976.8142795533"
            },
            "miss_distance": {
                "astronomical": "0.2831739151",
                "lunar": "110.1546529739",
                "kilometers": "42362214.538520837",
                "miles": "26322659.5162960706"
            },
            "orbiting_body": "Earth"
        }
    ],
    "orbital_data": {
        "orbit_id": "12",
        "orbit_determination_date": "2017-04-06 09:02:06",
        "first_observation_date": "2008-11-21",
        "last_observation_date": "2008-11-30",
        "data_arc_in_days": 9,
        "observations_used": 26,
        "orbit_uncertainty": "9",
        "minimum_orbit_intersection": ".097658",
        "jupiter_tisserand_invariant": "3.531",
        "epoch_osculation": "2454795.5",
        "eccentricity": ".4941415913097112",
        "semi_major_axis": "2.136941926719156",
        "inclination": "10.26036008721152",
        "ascending_node_longitude": "42.25819901470475",
        "orbital_period": "1141.004893092592",
        "perihelion_distance": "1.080990042513712",
        "perihelion_argument": "15.56405855468427",
        "aphelion_distance": "3.1928938109246",
        "perihelion_time": "2454804.595011533891",
        "mean_anomaly": "357.1304205862551",
        "mean_motion": ".3155113551040539",
        "equinox": "J2000",
        "orbit_class": {
            "orbit_class_type": "AMO",
            "orbit_class_description": "Near-Earth asteroid orbits similar to that of 1221 Amor",
            "orbit_class_range": "1.017 AU < q (perihelion) < 1.3 AU"
        }
    },
    "is_sentry_object": false
}